{
  "norad_id": 28376,
  "name": "AURA",
  "history": [
    {
      "epoch": "2026-04-11T20:10:06.333312Z",
      "apogee_km": 690.3104485867134,
      "perigee_km": 688.1195694639164,
      "latitude_deg": -7.426067397403488e-05,
      "longitude_deg": -84.80874435708874,
      "height_km": 692.2416469673996,
      "semi_major_axis_km": 7067.352009025315,
      "eccentricity": 0.000155,
      "inclination_deg": 98.3362,
      "raan_deg": 57.7717,
      "arg_perigee_deg": 92.4336,
      "mean_anomaly_deg": 267.7041,
      "mean_motion_rev_day": 14.61226963
    },
    {
      "epoch": "2026-04-13T06:40:49.394208Z",
      "apogee_km": 690.3242902534912,
      "perigee_km": 688.0953904069884,
      "latitude_deg": 1.4828835465635856e-05,
      "longitude_deg": 117.54306577491766,
      "height_km": 692.2332839503568,
      "semi_major_axis_km": 7067.3468403302395,
      "eccentricity": 0.00015769,
      "inclination_deg": 98.3364,
      "raan_deg": 59.2203,
      "arg_perigee_deg": 92.231,
      "mean_anomaly_deg": 267.9071,
      "mean_motion_rev_day": 14.61228566
    },
    {
      "epoch": "2026-04-14T20:28:44.954112Z",
      "apogee_km": 690.33189651677,
      "perigee_km": 688.0774145286578,
      "latitude_deg": 5.837896283596303e-07,
      "longitude_deg": -89.40427022231331,
      "height_km": 692.2146938855121,
      "semi_major_axis_km": 7067.341655522713,
      "eccentricity": 0.0001595,
      "inclination_deg": 98.3366,
      "raan_deg": 60.8068,
      "arg_perigee_deg": 91.5258,
      "mean_anomaly_deg": 268.6125,
      "mean_motion_rev_day": 14.61230174
    },
    {
      "epoch": "2026-04-15T19:29:13.492608Z",
      "apogee_km": 690.3304172559765,
      "perigee_km": 688.0731092549922,
      "latitude_deg": 7.277436387530199e-05,
      "longitude_deg": -74.50239129841242,
      "height_km": 692.1959763084625,
      "semi_major_axis_km": 7067.338763255484,
      "eccentricity": 0.0001597,
      "inclination_deg": 98.3369,
      "raan_deg": 61.7725,
      "arg_perigee_deg": 90.7217,
      "mean_anomaly_deg": 269.4167,
      "mean_motion_rev_day": 14.61231071
    },
    {
      "epoch": "2026-04-16T20:08:18.316032Z",
      "apogee_km": 690.338103923481,
      "perigee_km": 688.0567683674926,
      "latitude_deg": -2.261016870135655e-05,
      "longitude_deg": -84.25006758618623,
      "height_km": 692.1838794329134,
      "semi_major_axis_km": 7067.3344361454865,
      "eccentricity": 0.0001614,
      "inclination_deg": 98.337,
      "raan_deg": 62.8073,
      "arg_perigee_deg": 90.3247,
      "mean_anomaly_deg": 269.8138,
      "mean_motion_rev_day": 14.61232413
    },
    {
      "epoch": "2026-04-17T22:25:59.378592Z",
      "apogee_km": 690.340525284827,
      "perigee_km": 688.0456218633362,
      "latitude_deg": 6.684477944888593e-05,
      "longitude_deg": -118.6473598222042,
      "height_km": 692.1731993303295,
      "semi_major_axis_km": 7067.330073574081,
      "eccentricity": 0.00016236,
      "inclination_deg": 98.3372,
      "raan_deg": 63.911,
      "arg_perigee_deg": 90.0091,
      "mean_anomaly_deg": 270.1296,
      "mean_motion_rev_day": 14.61233766
    },
    {
      "epoch": "2026-04-18T19:47:51.436032Z",
      "apogee_km": 690.3455957910228,
      "perigee_km": 688.0345798333092,
      "latitude_deg": 3.7800200722337945e-05,
      "longitude_deg": -79.0948687313836,
      "height_km": 692.1572340097675,
      "semi_major_axis_km": 7067.327087812166,
      "eccentricity": 0.0001635,
      "inclination_deg": 98.3373,
      "raan_deg": 64.8078,
      "arg_perigee_deg": 89.3664,
      "mean_anomaly_deg": 270.7724,
      "mean_motion_rev_day": 14.61234692
    },
    {
      "epoch": "2026-04-19T20:26:56.038272Z",
      "apogee_km": 690.3577550260652,
      "perigee_km": 688.0142307216283,
      "latitude_deg": -2.417218462430341e-05,
      "longitude_deg": -88.8416288012546,
      "height_km": 692.1474403486852,
      "semi_major_axis_km": 7067.3229928738465,
      "eccentricity": 0.0001658,
      "inclination_deg": 98.3374,
      "raan_deg": 65.8426,
      "arg_perigee_deg": 89.0981,
      "mean_anomaly_deg": 271.0409,
      "mean_motion_rev_day": 14.61235962
    },
    {
      "epoch": "2026-04-20T12:52:59.070720Z",
      "apogee_km": 690.3616209205511,
      "perigee_km": 688.0060828806127,
      "latitude_deg": -1.678157767492421e-05,
      "longitude_deg": 24.66060593569254,
      "height_km": 692.1321944912114,
      "semi_major_axis_km": 7067.320851900582,
      "eccentricity": 0.00016665,
      "inclination_deg": 98.3375,
      "raan_deg": 66.5324,
      "arg_perigee_deg": 88.466,
      "mean_anomaly_deg": 271.6731,
      "mean_motion_rev_day": 14.61236626
    },
    {
      "epoch": "2026-04-21T20:06:28.703808Z",
      "apogee_km": 690.3636565153765,
      "perigee_km": 687.9918656815507,
      "latitude_deg": -4.1094695186512404e-05,
      "longitude_deg": -83.68442593575716,
      "height_km": 692.1125185991555,
      "semi_major_axis_km": 7067.314761098463,
      "eccentricity": 0.0001678,
      "inclination_deg": 98.3376,
      "raan_deg": 67.8432,
      "arg_perigee_deg": 87.8207,
      "mean_anomaly_deg": 272.3185,
      "mean_motion_rev_day": 14.61238515
    },
    {
      "epoch": "2026-04-22T20:45:33.065856Z",
      "apogee_km": 690.3630752137942,
      "perigee_km": 687.9842184500712,
      "latitude_deg": 1.3757899011585703e-05,
      "longitude_deg": -93.43010094784104,
      "height_km": 692.0918357740105,
      "semi_major_axis_km": 7067.310646831933,
      "eccentricity": 0.0001683,
      "inclination_deg": 98.3377,
      "raan_deg": 68.8781,
      "arg_perigee_deg": 87.0292,
      "mean_anomaly_deg": 273.1101,
      "mean_motion_rev_day": 14.61239791
    },
    {
      "epoch": "2026-04-23T13:11:35.916864Z",
      "apogee_km": 690.3604660069468,
      "perigee_km": 687.9814687989592,
      "latitude_deg": 2.1684617497179455e-05,
      "longitude_deg": 20.072991849158758,
      "height_km": 692.079387797387,
      "semi_major_axis_km": 7067.307967402952,
      "eccentricity": 0.00016831,
      "inclination_deg": 98.3378,
      "raan_deg": 69.568,
      "arg_perigee_deg": 86.5583,
      "mean_anomaly_deg": 273.581,
      "mean_motion_rev_day": 14.61240622
    },
    {
      "epoch": "2026-04-24T20:25:05.212128Z",
      "apogee_km": 690.3526685222041,
      "perigee_km": 687.9738152607833,
      "latitude_deg": 3.8070600217965776e-05,
      "longitude_deg": -88.2705328503298,
      "height_km": 692.0576072212757,
      "semi_major_axis_km": 7067.300241891494,
      "eccentricity": 0.0001683,
      "inclination_deg": 98.3379,
      "raan_deg": 70.8789,
      "arg_perigee_deg": 85.8797,
      "mean_anomaly_deg": 274.2596,
      "mean_motion_rev_day": 14.61243018
    },
    {
      "epoch": "2026-04-25T21:04:09.242400Z",
      "apogee_km": 690.349382532082,
      "perigee_km": 687.9606378326398,
      "latitude_deg": -2.9214193038702358e-05,
      "longitude_deg": -98.0148015323797,
      "height_km": 692.0391089401653,
      "semi_major_axis_km": 7067.29201018236,
      "eccentricity": 0.000169,
      "inclination_deg": 98.3381,
      "raan_deg": 71.9138,
      "arg_perigee_deg": 85.4031,
      "mean_anomaly_deg": 274.7362,
      "mean_motion_rev_day": 14.61245571
    },
    {
      "epoch": "2026-04-26T21:43:13.188864Z",
      "apogee_km": 690.3464235554366,
      "perigee_km": 687.9534402003028,
      "latitude_deg": -4.808613230254931e-05,
      "longitude_deg": -107.7587264347683,
      "height_km": 692.0229231023925,
      "semi_major_axis_km": 7067.286931877869,
      "eccentricity": 0.0001693,
      "inclination_deg": 98.3382,
      "raan_deg": 72.9487,
      "arg_perigee_deg": 84.8776,
      "mean_anomaly_deg": 275.2617,
      "mean_motion_rev_day": 14.61247146
    },
    {
      "epoch": "2026-04-27T20:43:40.732032Z",
      "apogee_km": 690.3442211384063,
      "perigee_km": 687.9413460119904,
      "latitude_deg": -1.0272498303734004e-05,
      "longitude_deg": -92.85238503093287,
      "height_km": 692.0038046100632,
      "semi_major_axis_km": 7067.279783575198,
      "eccentricity": 0.00017,
      "inclination_deg": 98.3383,
      "raan_deg": 73.9147,
      "arg_perigee_deg": 84.3262,
      "mean_anomaly_deg": 275.8132,
      "mean_motion_rev_day": 14.61249363
    },
    {
      "epoch": "2026-04-28T19:44:08.207808Z",
      "apogee_km": 690.3339815747495,
      "perigee_km": 687.9424156475397,
      "latitude_deg": 5.876562089173158e-06,
      "longitude_deg": -77.94575896795612,
      "height_km": 691.9853585769338,
      "semi_major_axis_km": 7067.275198611144,
      "eccentricity": 0.0001692,
      "inclination_deg": 98.3384,
      "raan_deg": 74.8807,
      "arg_perigee_deg": 83.6309,
      "mean_anomaly_deg": 276.5084,
      "mean_motion_rev_day": 14.61250785
    },
    {
      "epoch": "2026-04-29T20:23:11.799168Z",
      "apogee_km": 690.3255148972321,
      "perigee_km": 687.9381914786254,
      "latitude_deg": -2.8566193628202512e-05,
      "longitude_deg": -87.68809810235469,
      "height_km": 691.9631971285305,
      "semi_major_axis_km": 7067.2688531879285,
      "eccentricity": 0.0001689,
      "inclination_deg": 98.3387,
      "raan_deg": 75.9157,
      "arg_perigee_deg": 82.8548,
      "mean_anomaly_deg": 277.2844,
      "mean_motion_rev_day": 14.61252753
    },
    {
      "epoch": "2026-04-30T14:27:50.381280Z",
      "apogee_km": 690.3380838897547,
      "perigee_km": 687.9183936173104,
      "latitude_deg": 9.045148778271545e-06,
      "longitude_deg": 1.1677255934471185,
      "height_km": 691.9584364779284,
      "semi_major_axis_km": 7067.265238753532,
      "eccentricity": 0.00017119,
      "inclination_deg": 98.3388,
      "raan_deg": 76.6747,
      "arg_perigee_deg": 82.8984,
      "mean_anomaly_deg": 277.2411,
      "mean_motion_rev_day": 14.61253874
    }
  ]
}